LUR-1                   
1 60506U 24149AQ  26068.79566301  .00009121  00000+0  32985-3 0  9998
2 60506  97.3790 148.4255 0002777 309.1571  50.9421 15.28658648 86785
STARLINK-35676          
1 67345U 26003M   26068.47740203  .00011848  00000+0  43947-3 0  9996
2 67345  43.0000 228.0670 0001337 268.6448  91.4250 15.27573613  8796
